{
  "norad_id": 67966,
  "name": "STARLINK-36820",
  "history": [
    {
      "epoch": "2026-03-28T22:00:01.999584",
      "apogee_km": 466.8715655346077,
      "perigee_km": 464.54219483154884,
      "latitude_deg": 82.90693811726001,
      "longitude_deg": -15.397778240032494,
      "semi_major_axis_km": 6843.843880183078,
      "eccentricity": 0.00017018,
      "inclination_deg": 97.2844,
      "raan_deg": 98.7255,
      "arg_perigee_deg": 107.1519,
      "mean_anomaly_deg": 264.7638,
      "mean_motion_rev_day": 15.3338998
    },
    {
      "epoch": "2026-03-29T00:00:01.999296",
      "apogee_km": 466.6891673651098,
      "perigee_km": 464.59497096994437,
      "latitude_deg": 1.2821811466083606,
      "longitude_deg": -7.3977785599417984,
      "semi_major_axis_km": 6843.779069167526,
      "eccentricity": 0.000153,
      "inclination_deg": 97.2842,
      "raan_deg": 98.8072,
      "arg_perigee_deg": 110.9569,
      "mean_anomaly_deg": 0.6782,
      "mean_motion_rev_day": 15.33411762
    }
  ]
}